start=new Date('2022-10-27T00:00:00.000Z').valueOf();
sats=[{"TIME_SYSTEM":"UTC","RCS_SIZE":"LARGE","OBJECT_TYPE":"PAYLOAD","RA_OF_ASC_NODE":"278.4032","REV_AT_EPOCH":"11439","LAUNCH_DATE":"2020-10-06","CLASSIFICATION_TYPE":"U","SITE":"AFETR","SEMIMAJOR_AXIS":"6925.367","ARG_OF_PERICENTER":"46.3842","APOAPSIS":"548.673","DECAY_DATE":null,"MEAN_MOTION":"15.06393841","TLE_LINE2":"2 46584  53.0556 278.4032 0002080  46.3842 313.7319 15.06393841114391","MEAN_ELEMENT_THEORY":"SGP4","MEAN_ANOMALY":"313.7319","PERIAPSIS":"545.792","ELEMENT_SET_NO":"999","COUNTRY_CODE":"US","FILE":"3635100","CENTER_NAME":"EARTH","INCLINATION":"53.0556","PERIOD":"95.593","OBJECT_ID":"2020-070BE","BSTAR":"0.00010978000000","REF_FRAME":"TEME","NORAD_CAT_ID":"46584","OBJECT_NAME":"STARLINK-1732","EPOCH":"2022-10-26T16:03:41.203296","MEAN_MOTION_DDOT":"0.0000000000000","GP_ID":"216262870","EPHEMERIS_TYPE":"0","MEAN_MOTION_DOT":"0.00001354","TLE_LINE1":"1 46584U 20070BE  22299.66922689  .00001354  00000-0  10978-3 0  9999","ECCENTRICITY":"0.00020800"},{"SEMIMAJOR_AXIS":"6925.376","ARG_OF_PERICENTER":"47.0385","CLASSIFICATION_TYPE":"U","SITE":"AFETR","REV_AT_EPOCH":"11439","LAUNCH_DATE":"2020-10-06","TIME_SYSTEM":"UTC","OBJECT_TYPE":"PAYLOAD","RCS_SIZE":"LARGE","RA_OF_ASC_NODE":"278.3165","MEAN_ANOMALY":"313.0791","PERIAPSIS":"545.699","MEAN_MOTION":"15.06390891","TLE_LINE2":"2 46585  53.0557 278.3165 0002228  47.0385 313.0791 15.06390891114392","MEAN_ELEMENT_THEORY":"SGP4","DECAY_DATE":null,"APOAPSIS":"548.784","COUNTRY_CODE":"US","FILE":"3635100","ELEMENT_SET_NO":"999","TLE_LINE1":"1 46585U 20070BF  22299.68671365  .00002292  00000-0  17274-3 0  9992","ECCENTRICITY":"0.00022280","MEAN_MOTION_DDOT":"0.0000000000000","GP_ID":"216263113","EPHEMERIS_TYPE":"0","MEAN_MOTION_DOT":"0.00002292","NORAD_CAT_ID":"46585","OBJECT_NAME":"STARLINK-1736","EPOCH":"2022-10-26T16:28:52.059360","CENTER_NAME":"EARTH","INCLINATION":"53.0557","PERIOD":"95.593","OBJECT_ID":"2020-070BF","BSTAR":"0.00017274000000","REF_FRAME":"TEME"},{"ARG_OF_PERICENTER":"45.2138","SEMIMAJOR_AXIS":"6925.350","SITE":"AFETR","CLASSIFICATION_TYPE":"U","LAUNCH_DATE":"2020-10-06","REV_AT_EPOCH":"11439","RA_OF_ASC_NODE":"278.3570","RCS_SIZE":"LARGE","OBJECT_TYPE":"PAYLOAD","TIME_SYSTEM":"UTC","PERIAPSIS":"545.400","MEAN_ANOMALY":"314.9064","MEAN_ELEMENT_THEORY":"SGP4","TLE_LINE2":"2 46586  53.0541 278.3570 0002621  45.2138 314.9064 15.06399481114396","MEAN_MOTION":"15.06399481","APOAPSIS":"549.030","DECAY_DATE":null,"FILE":"3635100","COUNTRY_CODE":"US","ELEMENT_SET_NO":"999","ECCENTRICITY":"0.00026210","TLE_LINE1":"1 46586U 20070BG  22299.67660632  .00000133  00000-0  27839-4 0  9998","MEAN_MOTION_DOT":"0.00000133","GP_ID":"216261370","EPHEMERIS_TYPE":"0","MEAN_MOTION_DDOT":"0.0000000000000","EPOCH":"2022-10-26T16:14:18.786048","OBJECT_NAME":"STARLINK-1737","NORAD_CAT_ID":"46586","BSTAR":"0.00002783900000","REF_FRAME":"TEME","OBJECT_ID":"2020-070BG","PERIOD":"95.592","INCLINATION":"53.0541","CENTER_NAME":"EARTH"},{"FILE":"3635100","COUNTRY_CODE":"US","ELEMENT_SET_NO":"999","TLE_LINE1":"1 46588U 20070BJ  22299.65816789  .00005069  00000-0  35900-3 0  9994","ECCENTRICITY":"0.00023750","MEAN_MOTION_DOT":"0.00005069","EPHEMERIS_TYPE":"0","GP_ID":"216261619","MEAN_MOTION_DDOT":"0.0000000000000","NORAD_CAT_ID":"46588","EPOCH":"2022-10-26T15:47:45.705696","OBJECT_NAME":"STARLINK-1746","CENTER_NAME":"EARTH","BSTAR":"0.00035900000000","REF_FRAME":"TEME","INCLINATION":"53.0545","PERIOD":"95.593","OBJECT_ID":"2020-070BJ","ARG_OF_PERICENTER":"39.7019","SEMIMAJOR_AXIS":"6925.368","CLASSIFICATION_TYPE":"U","SITE":"AFETR","LAUNCH_DATE":"2020-10-06","REV_AT_EPOCH":"11439","TIME_SYSTEM":"UTC","RA_OF_ASC_NODE":"278.4545","RCS_SIZE":"LARGE","OBJECT_TYPE":"PAYLOAD","MEAN_ANOMALY":"320.4143","PERIAPSIS":"545.588","MEAN_MOTION":"15.06393601","MEAN_ELEMENT_THEORY":"SGP4","TLE_LINE2":"2 46588  53.0545 278.4545 0002375  39.7019 320.4143 15.06393601114395","APOAPSIS":"548.878","DECAY_DATE":null},{"CLASSIFICATION_TYPE":"U","SITE":"AFETR","ARG_OF_PERICENTER":"40.1984","SEMIMAJOR_AXIS":"6925.383","TIME_SYSTEM":"UTC","RCS_SIZE":"LARGE","RA_OF_ASC_NODE":"278.4835","OBJECT_TYPE":"PAYLOAD","LAUNCH_DATE":"2020-10-06","REV_AT_EPOCH":"11438","MEAN_ANOMALY":"319.9209","PERIAPSIS":"545.333","APOAPSIS":"549.163","DECAY_DATE":null,"MEAN_MOTION":"15.06388671","MEAN_ELEMENT_THEORY":"SGP4","TLE_LINE2":"2 46589  53.0549 278.4835 0002765  40.1984 319.9209 15.06388671114388","FILE":"3635100","COUNTRY_CODE":"US","ELEMENT_SET_NO":"999","MEAN_MOTION_DOT":"0.00001664","GP_ID":"216262370","MEAN_MOTION_DDOT":"0.0000000000000","EPHEMERIS_TYPE":"0","TLE_LINE1":"1 46589U 20070BK  22299.65080070  .00001664  00000-0  13068-3 0  9999","ECCENTRICITY":"0.00027650","CENTER_NAME":"EARTH","REF_FRAME":"TEME","BSTAR":"0.00013068000000","PERIOD":"95.593","OBJECT_ID":"2020-070BK","INCLINATION":"53.0549","NORAD_CAT_ID":"46589","EPOCH":"2022-10-26T15:37:09.180480","OBJECT_NAME":"STARLINK-1749"},{"COUNTRY_CODE":"US","FILE":"3635100","ELEMENT_SET_NO":"999","GP_ID":"216262613","EPHEMERIS_TYPE":"0","MEAN_MOTION_DDOT":"0.0000000000000","MEAN_MOTION_DOT":"-0.00000568","ECCENTRICITY":"0.00019650","TLE_LINE1":"1 46591U 20070BM  22299.63974606 -.00000568  00000-0 -19236-4 0  9995","PERIOD":"95.592","OBJECT_ID":"2020-070BM","INCLINATION":"53.0554","BSTAR":"-0.00001923600000","REF_FRAME":"TEME","CENTER_NAME":"EARTH","EPOCH":"2022-10-26T15:21:14.059584","OBJECT_NAME":"STARLINK-1755","NORAD_CAT_ID":"46591","SITE":"AFETR","CLASSIFICATION_TYPE":"U","SEMIMAJOR_AXIS":"6925.346","ARG_OF_PERICENTER":"46.0612","RCS_SIZE":"LARGE","RA_OF_ASC_NODE":"278.5324","OBJECT_TYPE":"PAYLOAD","TIME_SYSTEM":"UTC","REV_AT_EPOCH":"11344","LAUNCH_DATE":"2020-10-06","PERIAPSIS":"545.850","MEAN_ANOMALY":"314.0538","APOAPSIS":"548.572","DECAY_DATE":null,"TLE_LINE2":"2 46591  53.0554 278.5324 0001965  46.0612 314.0538 15.06400804113445","MEAN_ELEMENT_THEORY":"SGP4","MEAN_MOTION":"15.06400804"},{"EPHEMERIS_TYPE":"0","GP_ID":"216206568","MEAN_MOTION_DDOT":"0.0000000000000","MEAN_MOTION_DOT":"0.00003749","TLE_LINE1":"1 46671U 20073B   22299.46929253  .00003749  00000-0  27048-3 0  9997","ECCENTRICITY":"0.00019880","CENTER_NAME":"EARTH","PERIOD":"95.592","OBJECT_ID":"2020-073B","INCLINATION":"53.0554","BSTAR":"0.00027048000000","REF_FRAME":"TEME","NORAD_CAT_ID":"46671","OBJECT_NAME":"STARLINK-1715","EPOCH":"2022-10-26T11:15:46.874592","COUNTRY_CODE":"US","FILE":"3634846","ELEMENT_SET_NO":"999","MEAN_ANOMALY":"316.6968","PERIAPSIS":"545.842","APOAPSIS":"548.596","DECAY_DATE":null,"MEAN_MOTION":"15.06398148","TLE_LINE2":"2 46671  53.0554   9.5459 0001988  43.4177 316.6968 15.06398148111638","MEAN_ELEMENT_THEORY":"SGP4","CLASSIFICATION_TYPE":"U","SITE":"AFETR","SEMIMAJOR_AXIS":"6925.354","ARG_OF_PERICENTER":"43.4177","TIME_SYSTEM":"UTC","RA_OF_ASC_NODE":"9.5459","RCS_SIZE":"LARGE","OBJECT_TYPE":"PAYLOAD","REV_AT_EPOCH":"11163","LAUNCH_DATE":"2020-10-18"},{"ELEMENT_SET_NO":"999","FILE":"3634846","COUNTRY_CODE":"US","REF_FRAME":"TEME","BSTAR":"0.00005565400000","PERIOD":"95.593","INCLINATION":"53.0554","OBJECT_ID":"2020-073C","CENTER_NAME":"EARTH","OBJECT_NAME":"STARLINK-1716","EPOCH":"2022-10-26T11:40:17.870016","NORAD_CAT_ID":"46672","MEAN_MOTION_DOT":"0.00000547","GP_ID":"216205343","EPHEMERIS_TYPE":"0","MEAN_MOTION_DDOT":"0.0000000000000","ECCENTRICITY":"0.00016550","TLE_LINE1":"1 46672U 20073C   22299.48631794  .00000547  00000-0  55654-4 0  9998","RCS_SIZE":"LARGE","OBJECT_TYPE":"PAYLOAD","RA_OF_ASC_NODE":"4.2296","TIME_SYSTEM":"UTC","LAUNCH_DATE":"2020-10-18","REV_AT_EPOCH":"11171","SITE":"AFETR","CLASSIFICATION_TYPE":"U","ARG_OF_PERICENTER":"42.2980","SEMIMAJOR_AXIS":"6925.375","DECAY_DATE":null,"APOAPSIS":"548.386","MEAN_ELEMENT_THEORY":"SGP4","TLE_LINE2":"2 46672  53.0554   4.2296 0001655  42.2980 317.8136 15.06391523111719","MEAN_MOTION":"15.06391523","PERIAPSIS":"546.093","MEAN_ANOMALY":"317.8136"},{"MEAN_ANOMALY":"304.4877","PERIAPSIS":"546.093","MEAN_MOTION":"15.06385983","MEAN_ELEMENT_THEORY":"SGP4","TLE_LINE2":"2 46673  53.0560  19.1148 0001680  55.6271 304.4877 15.06385983111501","APOAPSIS":"548.420","DECAY_DATE":null,"ARG_OF_PERICENTER":"55.6271","SEMIMAJOR_AXIS":"6925.392","CLASSIFICATION_TYPE":"U","SITE":"AFETR","LAUNCH_DATE":"2020-10-18","REV_AT_EPOCH":"11150","TIME_SYSTEM":"UTC","RCS_SIZE":"LARGE","RA_OF_ASC_NODE":"19.1148","OBJECT_TYPE":"PAYLOAD","TLE_LINE1":"1 46673U 20073D   22299.53472600  .00001098  00000-0  92638-4 0  9999","ECCENTRICITY":"0.00016800","MEAN_MOTION_DOT":"0.00001098","GP_ID":"216261627","EPHEMERIS_TYPE":"0","MEAN_MOTION_DDOT":"0.0000000000000","NORAD_CAT_ID":"46673","EPOCH":"2022-10-26T12:50:00.326400","OBJECT_NAME":"STARLINK-1717","CENTER_NAME":"EARTH","REF_FRAME":"TEME","BSTAR":"0.00009263800000","INCLINATION":"53.0560","PERIOD":"95.593","OBJECT_ID":"2020-073D","FILE":"3635100","COUNTRY_CODE":"US","ELEMENT_SET_NO":"999"},{"REV_AT_EPOCH":"11172","LAUNCH_DATE":"2020-10-18","RCS_SIZE":"LARGE","OBJECT_TYPE":"PAYLOAD","RA_OF_ASC_NODE":"3.7999","TIME_SYSTEM":"UTC","SEMIMAJOR_AXIS":"6925.368","ARG_OF_PERICENTER":"61.5943","SITE":"AFETR","CLASSIFICATION_TYPE":"U","TLE_LINE2":"2 46674  53.0549   3.7999 0001591  61.5943 298.5206 15.06393590111721","MEAN_ELEMENT_THEORY":"SGP4","MEAN_MOTION":"15.06393590","APOAPSIS":"548.335","DECAY_DATE":null,"PERIAPSIS":"546.131","MEAN_ANOMALY":"298.5206","ELEMENT_SET_NO":"999","COUNTRY_CODE":"US","FILE":"3635100","OBJECT_NAME":"STARLINK-1718","EPOCH":"2022-10-26T13:52:59.198016","NORAD_CAT_ID":"46674","INCLINATION":"53.0549","PERIOD":"95.593","OBJECT_ID":"2020-073E","REF_FRAME":"TEME","BSTAR":"0.00015216000000","CENTER_NAME":"EARTH","ECCENTRICITY":"0.00015910","TLE_LINE1":"1 46674U 20073E   22299.57846294  .00001985  00000-0  15216-3 0  9999","EPHEMERIS_TYPE":"0","GP_ID":"216262378","MEAN_MOTION_DDOT":"0.0000000000000","MEAN_MOTION_DOT":"0.00001985"}];
